{"type": "FeatureCollection", "features": [ {"type": "Feature", "properties": {"norad_id": 39122, "name": "EUTELSAT 117 WEST A", "group": "eutelsat", "lat": -0.03547128473956245, "lon": -149.67148160831735, "alt_km": 35777.17701742845, "timestamp": "2025-12-06T16:45:42.397808+00:00", "meta": {"OBJECT_NAME": "EUTELSAT 117 WEST A", "OBJECT_ID": "2013-012A", "EPOCH": "2025-12-06T07:36:40.758624", "MEAN_MOTION": 1.00269846, "ECCENTRICITY": 0.00031684, "INCLINATION": 0.0154, "RA_OF_ASC_NODE": 324.5048, "ARG_OF_PERICENTER": 291.1491, "MEAN_ANOMALY": 177.0817, "EPHEMERIS_TYPE": 0, "CLASSIFICATION_TYPE": "U", "NORAD_CAT_ID": 39122, "ELEMENT_SET_NO": 999, "REV_AT_EPOCH": 4649, "BSTAR": 0, "MEAN_MOTION_DOT": -5e-08, "MEAN_MOTION_DDOT": 0}, "tle": {"line1": "1 39122U 13012A   25340.31713841 -.00000005  00000+0  00000+0 0  9990", "line2": "2 39122   0.0154 324.5048 0003168 291.1491 177.0817  1.00269846 46490"}}, "geometry": {"type": "Point", "coordinates": [-149.67148160831735, -0.03547128473956245]}}, {"type": "Feature", "properties": {"norad_id": 39163, "name": "EUTELSAT 7B", "group": "eutelsat", "lat": -0.03971764682037064, "lon": -25.844053218599658, "alt_km": 35769.239341833214, "timestamp": "2025-12-06T16:45:42.397820+00:00", "meta": {"OBJECT_NAME": "EUTELSAT 7B", "OBJECT_ID": "2013-022A", "EPOCH": "2025-12-06T06:08:38.706720", "MEAN_MOTION": 1.00270334, "ECCENTRICITY": 0.00044275, "INCLINATION": 0.0688, "RA_OF_ASC_NODE": 6.9802, "ARG_OF_PERICENTER": 305.0312, "MEAN_ANOMALY": 222.437, "EPHEMERIS_TYPE": 0, "CLASSIFICATION_TYPE": "U", "NORAD_CAT_ID": 39163, "ELEMENT_SET_NO": 999, "REV_AT_EPOCH": 4602, "BSTAR": 0, "MEAN_MOTION_DOT": 5.6e-07, "MEAN_MOTION_DDOT": 0}, "tle": {"line1": "1 39163U 13022A   25340.25600355  .00000056  00000+0  00000+0 0  9999", "line2": "2 39163   0.0688   6.9802 0004427 305.0312 222.4370  1.00270334 46024"}}, "geometry": {"type": "Point", "coordinates": [-25.844053218599658, -0.03971764682037064]}}, {"type": "Feature", "properties": {"norad_id": 39612, "name": "EXPRESS-AT1", "group": "eutelsat", "lat": 0.03390621996815772, "lon": 23.145299818843586, "alt_km": 35788.372177433026, "timestamp": "2025-12-06T16:45:42.397832+00:00", "meta": {"OBJECT_NAME": "EXPRESS-AT1", "OBJECT_ID": "2014-010A", "EPOCH": "2025-12-06T05:22:14.745792", "MEAN_MOTION": 1.00271139, "ECCENTRICITY": 5.724e-05, "INCLINATION": 0.0163, "RA_OF_ASC_NODE": 299.5205, "ARG_OF_PERICENTER": 237.3702, "MEAN_ANOMALY": 34.9365, "EPHEMERIS_TYPE": 0, "CLASSIFICATION_TYPE": "U", "NORAD_CAT_ID": 39612, "ELEMENT_SET_NO": 999, "REV_AT_EPOCH": 4288, "BSTAR": 0, "MEAN_MOTION_DOT": 8.7e-07, "MEAN_MOTION_DDOT": 0}, "tle": {"line1": "1 39612U 14010A   25340.22378178  .00000087  00000+0  00000+0 0  9992", "line2": "2 39612   0.0163 299.5205 0000572 237.3702  34.9365  1.00271139 42889"}}, "geometry": {"type": "Point", "coordinates": [23.145299818843586, 0.03390621996815772]}}, {"type": "Feature", "properties": {"norad_id": 39613, "name": "EXPRESS-AT2", "group": "eutelsat", "lat": 0.035934377760277275, "lon": 106.996313292117, "alt_km": 35792.72177020925, "timestamp": "2025-12-06T16:45:42.397843+00:00", "meta": {"OBJECT_NAME": "EXPRESS-AT2", "OBJECT_ID": "2014-010B", "EPOCH": "2025-12-06T00:21:38.642976", "MEAN_MOTION": 1.00269562, "ECCENTRICITY": 0.00014085, "INCLINATION": 0.0194, "RA_OF_ASC_NODE": 344.2604, "ARG_OF_PERICENTER": 299.8343, "MEAN_ANOMALY": 296.2301, "EPHEMERIS_TYPE": 0, "CLASSIFICATION_TYPE": "U", "NORAD_CAT_ID": 39613, "ELEMENT_SET_NO": 999, "REV_AT_EPOCH": 4256, "BSTAR": 0, "MEAN_MOTION_DOT": 0, "MEAN_MOTION_DDOT": 0}, "tle": {"line1": "1 39613U 14010B   25340.01503059  .00000000  00000+0  00000+0 0  9993", "line2": "2 39613   0.0194 344.2604 0001408 299.8343 296.2301  1.00269562 42563"}}, "geometry": {"type": "Point", "coordinates": [106.996313292117, 0.035934377760277275]}}, {"type": "Feature", "properties": {"norad_id": 39773, "name": "EUTELSAT 3B", "group": "eutelsat", "lat": -0.045012173591597586, "lon": -29.69906932262099, "alt_km": 35789.31265233349, "timestamp": "2025-12-06T16:45:42.397855+00:00", "meta": {"OBJECT_NAME": "EUTELSAT 3B", "OBJECT_ID": "2014-030A", "EPOCH": "2025-12-06T06:08:38.706720", "MEAN_MOTION": 1.00271536, "ECCENTRICITY": 0.00047379, "INCLINATION": 0.0647, "RA_OF_ASC_NODE": 9.5277, "ARG_OF_PERICENTER": 221.377, "MEAN_ANOMALY": 299.6523, "EPHEMERIS_TYPE": 0, "CLASSIFICATION_TYPE": "U", "NORAD_CAT_ID": 39773, "ELEMENT_SET_NO": 999, "REV_AT_EPOCH": 4213, "BSTAR": 0, "MEAN_MOTION_DOT": 2.8e-07, "MEAN_MOTION_DDOT": 0}, "tle": {"line1": "1 39773U 14030A   25340.25600355  .00000028  00000+0  00000+0 0  9995", "line2": "2 39773   0.0647   9.5277 0004737 221.3770 299.6523  1.00271536 42132"}}, "geometry": {"type": "Point", "coordinates": [-29.69906932262099, -0.045012173591597586]}}, {"type": "Feature", "properties": {"norad_id": 40425, "name": "EUTELSAT 115 WEST B", "group": "eutelsat", "lat": 0.008446001885272903, "lon": -147.7184158439948, "alt_km": 35787.517767033096, "timestamp": "2025-12-06T16:45:42.397866+00:00", "meta": {"OBJECT_NAME": "EUTELSAT 115 WEST B", "OBJECT_ID": "2015-010B", "EPOCH": "2025-12-05T21:42:40.706784", "MEAN_MOTION": 1.00271075, "ECCENTRICITY": 4.108e-05, "INCLINATION": 0.0148, "RA_OF_ASC_NODE": 147.2879, "ARG_OF_PERICENTER": 288.3386, "MEAN_ANOMALY": 210.1252, "EPHEMERIS_TYPE": 0, "CLASSIFICATION_TYPE": "U", "NORAD_CAT_ID": 40425, "ELEMENT_SET_NO": 999, "REV_AT_EPOCH": 3945, "BSTAR": 0, "MEAN_MOTION_DOT": -1.6e-07, "MEAN_MOTION_DDOT": 0}, "tle": {"line1": "1 40425U 15010B   25339.90463781 -.00000016  00000+0  00000+0 0  9998", "line2": "2 40425   0.0148 147.2879 0000410 288.3386 210.1252  1.00271075 39458"}}, "geometry": {"type": "Point", "coordinates": [-147.7184158439948, 0.008446001885272903]}}, {"type": "Feature", "properties": {"norad_id": 40875, "name": "EUTELSAT 8 WEST B", "group": "eutelsat", "lat": -0.044825525480845965, "lon": -40.79601667394314, "alt_km": 35777.98294427804, "timestamp": "2025-12-06T16:45:42.397878+00:00", "meta": {"OBJECT_NAME": "EUTELSAT 8 WEST B", "OBJECT_ID": "2015-039B", "EPOCH": "2025-12-06T06:46:44.152608", "MEAN_MOTION": 1.00271561, "ECCENTRICITY": 0.00041284, "INCLINATION": 0.0647, "RA_OF_ASC_NODE": 353.5592, "ARG_OF_PERICENTER": 263.443, "MEAN_ANOMALY": 272.0186, "EPHEMERIS_TYPE": 0, "CLASSIFICATION_TYPE": "U", "NORAD_CAT_ID": 40875, "ELEMENT_SET_NO": 999, "REV_AT_EPOCH": 3772, "BSTAR": 0, "MEAN_MOTION_DOT": -5.8e-07, "MEAN_MOTION_DDOT": 0}, "tle": {"line1": "1 40875U 15039B   25340.28245547 -.00000058  00000+0  00000+0 0  9995", "line2": "2 40875   0.0647 353.5592 0004128 263.4430 272.0186  1.00271561 37720"}}, "geometry": {"type": "Point", "coordinates": [-40.79601667394314, -0.044825525480845965]}}, {"type": "Feature", "properties": {"norad_id": 41310, "name": "EUTELSAT 9B", "group": "eutelsat", "lat": -0.0683193727542428, "lon": -23.800565208292323, "alt_km": 35778.29945855525, "timestamp": "2025-12-06T16:45:42.397890+00:00", "meta": {"OBJECT_NAME": "EUTELSAT 9B", "OBJECT_ID": "2016-005A", "EPOCH": "2025-12-06T06:51:36.187200", "MEAN_MOTION": 1.00272299, "ECCENTRICITY": 0.00050189, "INCLINATION": 0.0735, "RA_OF_ASC_NODE": 75.7395, "ARG_OF_PERICENTER": 191.5268, "MEAN_ANOMALY": 279.9567, "EPHEMERIS_TYPE": 0, "CLASSIFICATION_TYPE": "U", "NORAD_CAT_ID": 41310, "ELEMENT_SET_NO": 999, "REV_AT_EPOCH": 3618, "BSTAR": 0, "MEAN_MOTION_DOT": 7e-07, "MEAN_MOTION_DDOT": 0}, "tle": {"line1": "1 41310U 16005A   25340.28583550  .00000070  00000+0  00000+0 0  9996", "line2": "2 41310   0.0735  75.7395 0005018 191.5268 279.9567  1.00272299 36183"}}, "geometry": {"type": "Point", "coordinates": [-23.800565208292323, -0.0683193727542428]}}, {"type": "Feature", "properties": {"norad_id": 41382, "name": "EUTELSAT 65 WEST A", "group": "eutelsat", "lat": -0.07324212748876767, "lon": -98.06260807175141, "alt_km": 35774.52868944998, "timestamp": "2025-12-06T16:45:42.397901+00:00", "meta": {"OBJECT_NAME": "EUTELSAT 65 WEST A", "OBJECT_ID": "2016-014A", "EPOCH": "2025-12-06T06:30:23.218848", "MEAN_MOTION": 1.00269686, "ECCENTRICITY": 0.00028816, "INCLINATION": 0.049, "RA_OF_ASC_NODE": 353.9577, "ARG_OF_PERICENTER": 270.222, "MEAN_ANOMALY": 203.5224, "EPHEMERIS_TYPE": 0, "CLASSIFICATION_TYPE": "U", "NORAD_CAT_ID": 41382, "ELEMENT_SET_NO": 999, "REV_AT_EPOCH": 3560, "BSTAR": 0, "MEAN_MOTION_DOT": -2.68e-06, "MEAN_MOTION_DDOT": 0}, "tle": {"line1": "1 41382U 16014A   25340.27110207 -.00000268  00000+0  00000+0 0  9999", "line2": "2 41382   0.0490 353.9577 0002881 270.2220 203.5224  1.00269686 35606"}}, "geometry": {"type": "Point", "coordinates": [-98.06260807175141, -0.07324212748876767]}}, {"type": "Feature", "properties": {"norad_id": 41589, "name": "EUTELSAT 117 WEST B", "group": "eutelsat", "lat": 0.01518803013792249, "lon": -149.8649907770661, "alt_km": 35787.063897847416, "timestamp": "2025-12-06T16:45:42.397913+00:00", "meta": {"OBJECT_NAME": "EUTELSAT 117 WEST B", "OBJECT_ID": "2016-038B", "EPOCH": "2025-12-05T20:45:38.566944", "MEAN_MOTION": 1.00266552, "ECCENTRICITY": 3.952e-05, "INCLINATION": 0.0067, "RA_OF_ASC_NODE": 150.7186, "ARG_OF_PERICENTER": 345.3636, "MEAN_ANOMALY": 133.2375, "EPHEMERIS_TYPE": 0, "CLASSIFICATION_TYPE": "U", "NORAD_CAT_ID": 41589, "ELEMENT_SET_NO": 999, "REV_AT_EPOCH": 3472, "BSTAR": 0, "MEAN_MOTION_DOT": -1e-08, "MEAN_MOTION_DDOT": 0}, "tle": {"line1": "1 41589U 16038B   25339.86502971 -.00000001  00000+0  00000+0 0  9995", "line2": "2 41589   0.0067 150.7186 0000395 345.3636 133.2375  1.00266552 34724"}}, "geometry": {"type": "Point", "coordinates": [-149.8649907770661, 0.01518803013792249]}}]}